{
  "type": "FeatureCollection",
  "features": [
    {
      "type": "Feature",
      "properties": {
        "norad_id": 66907,
        "name": "1998-067XT",
        "group": "stations",
        "lat": -48.503651453107175,
        "lon": 110.25371055504942,
        "alt_km": 420.3585523516076,
        "timestamp": "2025-12-06T09:34:15.718791+00:00",
        "meta_object_name": "1998-067XT",
        "meta_object_id": "1998-067XT",
        "meta_epoch": "2025-12-05T23:03:20.722464",
        "meta_mean_motion": 15.50347782,
        "meta_eccentricity": 0.00053008,
        "meta_inclination": 51.6292,
        "meta_ra_of_asc_node": 176.0227,
        "meta_arg_of_pericenter": 190.4344,
        "meta_mean_anomaly": 169.6536,
        "meta_ephemeris_type": 0,
        "meta_classification_type": "U",
        "meta_norad_cat_id": 66907,
        "meta_element_set_no": 999,
        "meta_rev_at_epoch": 56,
        "meta_bstar": 0.0012672984,
        "meta_mean_motion_dot": 0.00073478,
        "meta_mean_motion_ddot": 0,
        "tle_line1": "1 66907U 98067XT  25339.96065651  .00073478  00000+0  12673-2 0  9997",
        "tle_line2": "2 66907  51.6292 176.0227 0005300 190.4344 169.6536 15.50347782   562"
      },
      "geometry": {
        "type": "Point",
        "coordinates": [
          110.25371055504942,
          -48.503651453107175
        ]
      }
    },
    {
      "type": "Feature",
      "properties": {
        "norad_id": 66908,
        "name": "1998-067XU",
        "group": "stations",
        "lat": -48.27234752379539,
        "lon": 111.17149701318806,
        "alt_km": 420.2419061838791,
        "timestamp": "2025-12-06T09:34:15.718808+00:00",
        "meta_object_name": "1998-067XU",
        "meta_object_id": "1998-067XU",
        "meta_epoch": "2025-12-05T19:57:34.192800",
        "meta_mean_motion": 15.50396969,
        "meta_eccentricity": 0.00055014,
        "meta_inclination": 51.6293,
        "meta_ra_of_asc_node": 176.6606,
        "meta_arg_of_pericenter": 189.4438,
        "meta_mean_anomaly": 170.6448,
        "meta_ephemeris_type": 0,
        "meta_classification_type": "U",
        "meta_norad_cat_id": 66908,
        "meta_element_set_no": 999,
        "meta_rev_at_epoch": 54,
        "meta_bstar": 0.0012460713,
        "meta_mean_motion_dot": 0.00072359,
        "meta_mean_motion_ddot": 0,
        "tle_line1": "1 66908U 98067XU  25339.83164575  .00072359  00000+0  12461-2 0  9991",
        "tle_line2": "2 66908  51.6293 176.6606 0005501 189.4438 170.6448 15.50396969   549"
      },
      "geometry": {
        "type": "Point",
        "coordinates": [
          111.17149701318806,
          -48.27234752379539
        ]
      }
    },
    {
      "type": "Feature",
      "properties": {
        "norad_id": 66909,
        "name": "1998-067XV",
        "group": "stations",
        "lat": -48.229856761483816,
        "lon": 111.33606232575828,
        "alt_km": 420.11091619070066,
        "timestamp": "2025-12-06T09:34:15.718819+00:00",
        "meta_object_name": "1998-067XV",
        "meta_object_id": "1998-067XV",
        "meta_epoch": "2025-12-05T18:24:43.911360",
        "meta_mean_motion": 15.50399103,
        "meta_eccentricity": 0.00053649,
        "meta_inclination": 51.6292,
        "meta_ra_of_asc_node": 176.9805,
        "meta_arg_of_pericenter": 189.9534,
        "meta_mean_anomaly": 170.135,
        "meta_ephemeris_type": 0,
        "meta_classification_type": "U",
        "meta_norad_cat_id": 66909,
        "meta_element_set_no": 999,
        "meta_rev_at_epoch": 53,
        "meta_bstar": 0.0014470913,
        "meta_mean_motion_dot": 0.00084238,
        "meta_mean_motion_ddot": 0,
        "tle_line1": "1 66909U 98067XV  25339.76717490  .00084238  00000+0  14471-2 0  9996",
        "tle_line2": "2 66909  51.6292 176.9805 0005364 189.9534 170.1350 15.50399103   531"
      },
      "geometry": {
        "type": "Point",
        "coordinates": [
          111.33606232575828,
          -48.229856761483816
        ]
      }
    },
    {
      "type": "Feature",
      "properties": {
        "norad_id": 66910,
        "name": "1998-067XW",
        "group": "stations",
        "lat": -46.641009878848635,
        "lon": 116.7978065527665,
        "alt_km": 420.7073003726773,
        "timestamp": "2025-12-06T09:34:15.718829+00:00",
        "meta_object_name": "1998-067XW",
        "meta_object_id": "1998-067XW",
        "meta_epoch": "2025-12-05T23:02:14.972928",
        "meta_mean_motion": 15.50685227,
        "meta_eccentricity": 0.00063204,
        "meta_inclination": 51.6293,
        "meta_ra_of_asc_node": 176.0172,
        "meta_arg_of_pericenter": 176.8088,
        "meta_mean_anomaly": 183.2943,
        "meta_ephemeris_type": 0,
        "meta_classification_type": "U",
        "meta_norad_cat_id": 66910,
        "meta_element_set_no": 999,
        "meta_rev_at_epoch": 56,
        "meta_bstar": 0.0012355568,
        "meta_mean_motion_dot": 0.000725,
        "meta_mean_motion_ddot": 0,
        "tle_line1": "1 66910U 98067XW  25339.95989552  .00072500  00000+0  12356-2 0  9998",
        "tle_line2": "2 66910  51.6293 176.0172 0006320 176.8088 183.2943 15.50685227   565"
      },
      "geometry": {
        "type": "Point",
        "coordinates": [
          116.7978065527665,
          -46.641009878848635
        ]
      }
    },
    {
      "type": "Feature",
      "properties": {
        "norad_id": 66911,
        "name": "1998-067XX",
        "group": "stations",
        "lat": -46.463514900188045,
        "lon": 117.33890113345913,
        "alt_km": 420.4921418427084,
        "timestamp": "2025-12-06T09:34:15.718844+00:00",
        "meta_object_name": "1998-067XX",
        "meta_object_id": "1998-067XX",
        "meta_epoch": "2025-12-05T21:29:22.335360",
        "meta_mean_motion": 15.50737311,
        "meta_eccentricity": 0.00062325,
        "meta_inclination": 51.6291,
        "meta_ra_of_asc_node": 176.3366,
        "meta_arg_of_pericenter": 176.693,
        "meta_mean_anomaly": 183.4102,
        "meta_ephemeris_type": 0,
        "meta_classification_type": "U",
        "meta_norad_cat_id": 66911,
        "meta_element_set_no": 999,
        "meta_rev_at_epoch": 54,
        "meta_bstar": 0.0013660051,
        "meta_mean_motion_dot": 0.00080432,
        "meta_mean_motion_ddot": 0,
        "tle_line1": "1 66911U 98067XX  25339.89539740  .00080432  00000+0  13660-2 0  9994",
        "tle_line2": "2 66911  51.6291 176.3366 0006232 176.6930 183.4102 15.50737311   547"
      },
      "geometry": {
        "type": "Point",
        "coordinates": [
          117.33890113345913,
          -46.463514900188045
        ]
      }
    },
    {
      "type": "Feature",
      "properties": {
        "norad_id": 66912,
        "name": "1998-067XY",
        "group": "stations",
        "lat": -48.75492714970802,
        "lon": 109.21049002681684,
        "alt_km": 420.6394087685794,
        "timestamp": "2025-12-06T09:34:15.718854+00:00",
        "meta_object_name": "1998-067XY",
        "meta_object_id": "1998-067XY",
        "meta_epoch": "2025-12-05T19:57:50.505120",
        "meta_mean_motion": 15.50237673,
        "meta_eccentricity": 0.00053781,
        "meta_inclination": 51.6293,
        "meta_ra_of_asc_node": 176.6617,
        "meta_arg_of_pericenter": 189.6271,
        "meta_mean_anomaly": 170.4616,
        "meta_ephemeris_type": 0,
        "meta_classification_type": "U",
        "meta_norad_cat_id": 66912,
        "meta_element_set_no": 999,
        "meta_rev_at_epoch": 53,
        "meta_bstar": 0.0011244391,
        "meta_mean_motion_dot": 0.00064818,
        "meta_mean_motion_ddot": 0,
        "tle_line1": "1 66912U 98067XY  25339.83183455  .00064818  00000+0  11244-2 0  9993",
        "tle_line2": "2 66912  51.6293 176.6617 0005378 189.6271 170.4616 15.50237673   535"
      },
      "geometry": {
        "type": "Point",
        "coordinates": [
          109.21049002681684,
          -48.75492714970802
        ]
      }
    }
  ]
}